OBJECT_NAME,OBJECT_ID,EPOCH,MEAN_MOTION,ECCENTRICITY,INCLINATION,RA_OF_ASC_NODE,ARG_OF_PERICENTER,MEAN_ANOMALY,EPHEMERIS_TYPE,CLASSIFICATION_TYPE,NORAD_CAT_ID,ELEMENT_SET_NO,REV_AT_EPOCH,BSTAR,MEAN_MOTION_DOT,MEAN_MOTION_DDOT
GALAXY 33 (G-33),2022-128A,2026-06-18T15:42:40.693824,1.00269650,.0001644,0.0170,41.7539,41.3254,286.4803,0,U,54026,999,1375,0,.73E-6,0
GALAXY 34 (G-34),2022-128B,2026-06-18T15:26:01.500288,1.00274211,.0001513,0.0104,30.3042,67.6466,271.4326,0,U,54027,999,1392,0,.52E-6,0
ANGOSAT 2,2022-131A,2026-06-17T14:47:16.935072,1.00272126,.00007151,0.0320,83.0963,28.7776,38.8139,0,U,54033,999,1348,0,.13E-5,0
EUTELSAT HOTBIRD 13F,2022-134A,2026-06-18T20:10:40.615104,1.00271345,.0002093,0.0494,294.8845,61.5393,226.3298,0,U,54048,999,1339,0,.81E-6,0
LDPE-2,2022-144A,2026-06-18T14:44:38.709024,1.00532955,.0001836,5.6174,63.6428,101.6875,166.5333,0,U,54219,999,1185,0,.119E-5,0
EUTELSAT HOTBIRD 13G,2022-146A,2026-06-18T20:10:40.566720,1.00270555,.0001927,0.0479,229.6231,314.1357,38.9820,0,U,54225,999,748,0,.81E-6,0
ZHONGXING-19,2022-148A,2026-06-18T18:49:51.504096,1.00271585,.0002357,0.0176,19.7991,91.2955,241.5788,0,U,54230,999,1339,0,-.88E-6,0
GALAXY 31 (G-31),2022-153A,2026-06-18T15:46:10.358976,1.00271570,.0001089,0.0174,73.8851,4.3963,304.1396,0,U,54243,999,714,0,.7E-7,0
GALAXY 32 (G-32),2022-153B,2026-06-18T14:12:00.204192,1.00271685,.000208,0.0111,25.1390,9.2508,354.4398,0,U,54244,999,1315,0,-.181E-5,0
EUTELSAT 10B,2022-157A,2026-06-18T19:48:48.981888,1.00265718,.0001148,0.0648,97.2896,11.9512,105.0019,0,U,54259,999,1304,0,.61E-6,0
GALAXY 35 (G-35),2022-170A,2026-06-18T19:19:18.678720,1.00271957,.0001813,0.0140,47.9522,35.6252,20.1755,0,U,54741,999,1291,0,-.169E-5,0
GALAXY 36 (G-36),2022-170B,2026-06-18T19:20:26.070720,1.00272628,.0002476,0.0071,305.4739,137.7403,24.9305,0,U,54742,999,1279,0,-.192E-5,0
METEOSAT-12 (MTG-I1),2022-170C,2026-06-18T19:45:56.758176,1.00273080,.0003242,0.7406,23.2950,71.0245,108.8204,0,U,54743,999,1299,0,-.14E-6,0
SHIJIAN-23 (SJ-23),2023-002A,2026-06-17T17:30:09.823968,1.00087498,.0003809,3.7196,78.3065,272.9008,325.0641,0,U,55131,999,1251,0,-.26E-5,0
APSTAR-6E,2023-005A,2026-06-18T16:35:31.820064,1.00270657,.0000913,0.0387,247.7467,297.0745,104.9723,0,U,55239,999,1870,0,-.324E-5,0
USA 342,2023-008A,2026-06-15T08:02:26.115936,1.00270392,.0000187,0.0090,64.0068,223.8693,120.1932,0,U,55263,999,1249,0,.142E-5,0
LDPE-3A,2023-008B,2026-06-18T15:47:55.193280,0.99145044,.0001137,2.3526,81.6461,60.6683,246.5610,0,U,55264,999,1182,0,.59E-6,0
ELEKTRO-L 4,2023-016A,2026-06-17T19:12:34.110720,1.00270799,.0000829,0.0743,161.5596,14.1788,184.2516,0,U,55506,999,1234,0,-.64E-6,0
AMAZONAS NEXUS,2023-017A,2026-06-18T12:37:55.191072,1.00275843,.0005221,0.0374,36.3998,35.4429,323.4129,0,U,55508,999,705,0,-.289E-5,0
ZHONGXING-26,2023-023A,2026-06-18T19:16:33.820608,1.00269988,.0003389,0.0695,70.8286,15.8874,234.5879,0,U,55686,999,1224,0,-.36E-5,0
LUCH-5X (OLYMP-K 2),2023-031A,2026-06-17T18:23:47.321088,1.00272450,.0000684,0.0237,60.4476,145.7824,37.7201,0,U,55841,999,1194,0,.28E-6,0
GAOFEN-13 02,2023-036A,2026-06-18T18:45:36.910944,1.00270232,.000406,1.0211,1.3811,336.1446,359.1836,0,U,55912,999,1210,0,-.225E-5,0
SES-18,2023-038A,2026-06-18T14:54:41.006016,1.00271473,.0000121,0.0169,299.6964,324.7472,122.9796,0,U,55970,999,1211,0,-.107E-5,0
SES-19,2023-038B,2026-06-18T15:42:10.743264,1.00272132,.0001461,0.0140,23.7067,59.6363,284.1908,0,U,55971,999,1210,0,.81E-6,0
INTELSAT 40E (IS-40E),2023-052A,2026-06-18T14:59:46.046400,1.00271281,.0001944,0.0142,44.4220,81.4139,274.9633,0,U,56174,999,1183,0,-.18E-5,0
VIASAT-3 F1,2023-060A,2026-06-18T19:20:41.048160,1.00270504,.0001035,0.0244,348.3269,90.7537,29.1751,0,U,56370,999,1145,0,0,0
ARCTURUS,2023-060B,2026-06-18T18:51:04.443840,1.00272377,.0002601,2.7793,79.9344,51.4680,130.8872,0,U,56371,999,1147,0,-.7E-6,0
GS-1,2023-060C,2026-06-18T17:20:11.630976,1.00274169,.0003742,2.7297,79.8139,281.5832,255.0259,0,U,56372,999,755,0,-.232E-5,0
BEIDOU-3 G4,2023-066A,2026-06-18T18:43:07.150368,1.00273239,.0004388,0.4847,331.9614,179.9602,175.9126,0,U,56564,999,1140,0,-.287E-5,0
ARABSAT-7B (BADR-8),2023-075A,2026-06-18T20:24:56.895264,1.00273633,.0004626,0.0755,28.4177,354.7193,216.1908,0,U,56757,999,1113,0,.138E-5,0
NVS-01 (IRNSS-1J),2023-076A,2026-06-18T19:57:39.426912,1.00264102,.0003094,2.1613,244.2669,35.8627,55.7560,0,U,56759,999,1113,0,-.343E-5,0
